HAWK-5A                 
1 52757U 22057AB  26168.43075752  .00015395  00000+0  26288-3 0  9999
2 52757  97.6608 327.2934 0005570  78.1760 282.0115 15.51399329226387
HAWK-6B                 
1 55324U 23011A   26168.77327461  .00003925  00000+0  17183-3 0  9997
2 55324  40.4999 348.6536 0002258   4.7403 355.3427 15.22938202187937
HAWK-6C                 
1 55326U 23011C   26168.77261256  .00003552  00000+0  15633-3 0  9992
2 55326  40.4990 345.4966 0003235 353.4183   6.6583 15.22934611187947
HAWK-6A                 
1 55327U 23011D   26168.77266627  .00003837  00000+0  16821-3 0  9996
2 55327  40.5001 347.1203 0002912 349.9882  10.0869 15.22935969187945
HAWK-7A                 
1 56191U 23054P   26168.76551744  .00004573  00000+0  17334-3 0  9997
2 56191  97.2699  56.0880 0004303  56.2484 303.9165 15.27365903177117
HAWK-7B                 
1 56193U 23054R   26168.76543441  .00004651  00000+0  17625-3 0  9994
2 56193  97.2724  54.3521 0003716  67.7987 292.3647 15.27363946177114
HAWK-7C                 
1 56200U 23054Y   26168.76532257  .00004595  00000+0  17416-3 0  9991
2 56200  97.2702  55.1207 0003666  59.3214 300.8386 15.27365535177114
