OBJECT_NAME,OBJECT_ID,EPOCH,MEAN_MOTION,ECCENTRICITY,INCLINATION,RA_OF_ASC_NODE,ARG_OF_PERICENTER,MEAN_ANOMALY,EPHEMERIS_TYPE,CLASSIFICATION_TYPE,NORAD_CAT_ID,ELEMENT_SET_NO,REV_AT_EPOCH,BSTAR,MEAN_MOTION_DOT,MEAN_MOTION_DDOT
HAWK-5A,2022-057AB,2026-06-17T10:20:17.449728,15.51399329,.00055703,97.6608,327.2934,78.1760,282.0115,0,U,52757,999,22638,.26288337E-3,.15395E-3,0
HAWK-6B,2023-011A,2026-06-17T18:33:30.926304,15.22938202,.0002258,40.4999,348.6536,4.7403,355.3427,0,U,55324,999,18793,.17183E-3,.3925E-4,0
HAWK-6C,2023-011C,2026-06-17T18:32:33.725184,15.22934611,.0003235,40.4990,345.4966,353.4183,6.6583,0,U,55326,999,18794,.15633E-3,.3552E-4,0
HAWK-6A,2023-011D,2026-06-17T18:32:38.365728,15.22935969,.0002912,40.5001,347.1203,349.9882,10.0869,0,U,55327,999,18794,.16821E-3,.3837E-4,0
HAWK-7A,2023-054P,2026-06-17T18:22:20.706816,15.27365903,.0004303,97.2699,56.0880,56.2484,303.9165,0,U,56191,999,17711,.17334E-3,.4573E-4,0
HAWK-7B,2023-054R,2026-06-17T18:22:13.533024,15.27363946,.0003716,97.2724,54.3521,67.7987,292.3647,0,U,56193,999,17711,.17625E-3,.4651E-4,0
HAWK-7C,2023-054Y,2026-06-17T18:22:03.870048,15.27365535,.0003666,97.2702,55.1207,59.3214,300.8386,0,U,56200,999,17711,.17416E-3,.4595E-4,0
